HIMAWARI-8              
1 40267U 14060A   23328.77688358 -.00000268  00000+0  00000+0 0  9995
2 40267   0.0202  80.8638 0000953 200.1601 202.7810  1.00268867 33481
